#cP2009  6 29  0  0  0.00000000      96 ORBIT IGS05 HLM  IGS
## 1538  86400.00000000   900.00000000 55011 0.0000000000000
+   31   G01G02G03G04G06G07G08G09G10G11G12G13G14G15G16G17G18
+        G19G20G21G22G23G24G25G26G27G28G29G30G31G32  0  0  0
+          0  0  0  0  0  0  0  0  0  0  0  0  0  0  0  0  0
+          0  0  0  0  0  0  0  0  0  0  0  0  0  0  0  0  0
+          0  0  0  0  0  0  0  0  0  0  0  0  0  0  0  0  0
++         4  2  2  2  2  2  2  2  3  2  2  2  2  2  2  2  2
++         2  2  2  2  2  2  3  2  2  2  2  2  2  3  0  0  0
++         0  0  0  0  0  0  0  0  0  0  0  0  0  0  0  0  0
++         0  0  0  0  0  0  0  0  0  0  0  0  0  0  0  0  0
++         0  0  0  0  0  0  0  0  0  0  0  0  0  0  0  0  0
%c G  cc GPS ccc cccc cccc cccc cccc ccccc ccccc ccccc ccccc
%c cc cc ccc ccc cccc cccc cccc cccc ccccc ccccc ccccc ccccc
%f  1.2500000  1.025000000  0.00000000000  0.000000000000000
%f  0.0000000  0.000000000  0.00000000000  0.000000000000000
%i    0    0    0    0      0      0      0      0         0
%i    0    0    0    0      0      0      0      0         0
/* FINAL ORBIT COMBINATION FROM WEIGHTED AVERAGE OF:        
/* cod emr esa gfz grg jpl mit ngs sio                      
/* REFERENCED TO IGS TIME (IGST) AND TO WEIGHTED MEAN POLE: 
/* PCV:IGS05_1525 OL/AL:FES2004  NONE     Y  ORB:CMB CLK:CMB
*  2009  6 29  7 30  0.00000000
PG01 -16608.353989 -16120.149760  13032.011252 999999.999999
PG02   9736.011567 -13761.236597  20347.808108    157.945257  4  4  3  97       
PG03  -7644.164885  24092.476428  -7852.331936    413.089965  6  7  3 108       
PG04  21285.096240  -7472.271614  14171.145119   -153.037967  5  2  5 104       
PG06 -12789.659000  22922.934204  -3606.784398    176.751211  5  6  4 110       
PG07  25150.853130   7017.648834   5200.979739     16.168787  5  8  6  83       
PG08  25631.687699   -252.208473  -7948.272942   -209.620556  5  8  4  97       
PG09 -12248.441056 -14385.729304 -19363.206061     63.717278  6  7  7 119       
PG10    835.761819 -22989.808738  12812.682045    -18.265248  1  6  8 134       
PG11  15174.396406  13191.320540 -17717.075619     -8.482753  5  8  8 119       
PG12 -12148.334427 -23429.791487   3602.494561   -258.946822  6  8  6 150       
PG13  15673.487697   2883.146305  21118.083355    300.394486  5  6  3 117       
PG14 -20281.767112  12763.891727 -11197.237871    -87.646137  3  6  4 137       
PG15   3363.240971 -21813.510860 -14707.861545   -304.718162  8  8  6 120       
PG16  -4847.706268  19803.831129  16941.717207     37.584695  5  8  6 135       
PG17  20320.200982 -11860.554025 -12062.198046     67.238406  8  5  7 104       
PG18 -17332.638144  -8914.895650 -17974.635230    -44.240367  5  7  7 135       
PG19  -2737.445082  20461.471919 -16501.708636     20.853065  7  8  5 109       
PG20  13540.686493  22369.886269   4643.202559     78.665329  6  7  7 102       
PG21 -26215.543433  -5714.700083   2275.984979      5.656597  7  7  6 121       
PG22 -15056.636695   4191.308343 -21317.802654    196.520606  5  6  3 151       
PG23   7238.981431  14236.266108  21120.236705    390.171694  5 10  6 139       
PG24 -18531.364760 -13293.227796  13528.577994    200.536810  2  6  6  66       
PG25  21180.373696   9704.680407  12910.825856    484.610949  3  5  6 141       
PG26 -12862.034214  -7628.468414 -22549.211439     64.299307  5  5  3 122       
PG27  -5635.059490 -14580.072878 -20792.714949     61.440528  6  8  6 108       
PG28  15355.909338   -794.254230 -21259.903924    -25.734313  6  6  6 126       
PG29 -15013.037278  -5264.792121  21368.096062     34.668734  4  7  6 142       
PG30 -16937.576143 -16365.698115  11981.640285    157.148758  7  5  7 132       
PG31 -19351.519236   8622.535522  16312.613741    -63.096063  6  3  6 150       
PG32   6713.437393  25745.203012  -1895.531905    239.928625  7  5  7 166       
*  2009  6 29  7 45  0.00000000
PG01 -16986.914068 -17446.763955  10641.675899 999999.999999
PG02  12017.295239 -13424.572133  19293.786692    157.946450  4  3  3 110       
PG03  -8309.272894  24547.083623  -5182.645032    413.093887  6  7  3  92       
PG04  22758.635140  -7085.209602  11958.855450   -153.052447  5  3  5 103       
PG06 -13222.391487  22969.256589   -817.272386    176.762198  6  5  3  96       
PG07  24381.973641   7156.050308   7930.772677     16.168033  5  8  6  51       
PG08  26334.887452     -6.036223  -5196.207152   -209.623299  5  7  4  98       
PG09 -10093.688600 -14315.415555 -20652.961858     63.719164  5  7  7 110       
PG10   1676.568655 -21576.073949  15005.811999    -18.264885  2  6  8 130       
PG11  13130.921147  13616.906550 -18964.862954     -8.484316  5  8  7 112       
PG12 -12040.222698 -23741.446314    754.742874   -258.941524  6  8  6 146       
PG13  14140.981405   4829.461081  21827.477790    300.395318  5  6  3 122       
PG14 -19520.779622  11534.971566 -13609.424362    -87.641019  3  6  3 138       
PG15   4433.176764 -22972.282923 -12491.137387   -304.720721  8  7  6 108       
PG16  -5773.311073  17989.600720  18619.920006     37.581472  5  7  6 139       
PG17  19580.785361 -10505.610462 -14332.655765     67.240248  8  5  7  98       
PG18 -17941.043369 -10821.921309 -16307.750503    -44.237627  5  7  7 133       
PG19  -4045.588771  21706.616227 -14507.229654     20.851935  7  8  6 107       
PG20  13433.884532  22849.771318   1860.493966     78.664356  7  7  7  88       
PG21 -25804.134677  -5943.704248   5000.410227      5.654856  8  7  6 124       
PG22 -15956.756698   1900.098853 -20997.378763    196.519635  4  6  3 154       
PG23   5767.804184  16105.820511  20186.625250    390.171539  5 10  6 140       
PG24 -16857.208700 -13262.284867  15630.067182    200.540021  2  6  6  73       
PG25  19620.958261   9873.094070  15132.918861    484.627193  3  5  6 142       
PG26 -11306.706920  -9524.543729 -22619.507273     64.299871  6  5  3 126       
PG27  -3081.470222 -14517.246701 -21347.432269     61.444215  6  8  6 101       
PG28  16256.587948   1515.277501 -20581.545596    -25.734231  6  7  6 125       
PG29 -13561.241612  -7233.803894  21765.028080     34.671604  5  6  6 148       
PG30 -17293.137115 -17619.294284   9527.431658    157.151567  8  5  7 127       
PG31 -21036.552866   8308.346578  14244.078702    -63.096707  5  4  6 154       
PG32   6360.359012  25425.947485  -4709.217307    239.923457  7  5  7 161       
*  2009  6 29  8  0  0.00000000
PG01 -17302.886951 -18502.636160   8068.469629 999999.999999
PG02  14176.155716 -13201.940221  17901.656206    157.947594  3  3  3 117       
PG03  -8821.200882  24755.301787  -2422.453344    413.098918  6  6  2 110       
PG04  23987.784544  -6785.625495   9543.204664   -153.067066  6  3  4 109       
PG06 -13493.539377  22762.835491   1986.395641    176.773336  5  5  4  99       
PG07  23320.694053   7323.021268  10524.968820     16.167518  6  8  6  65       
PG08  26739.292496    167.415661  -2357.489203   -209.623737  5  7  4 100       
PG09  -7816.909361 -14365.236826 -21607.388653     63.721558  5  7  7 120       
PG10   2691.738619 -19995.764401  16934.031040    -18.265945  3  7  8 124       
PG11  10986.236833  14147.601294 -19894.471536     -8.485639  5  8  7  99       
PG12 -11800.568741 -23772.192784  -2105.891792   -258.936129  6  8  7 147       
PG13  12687.284383   6908.594774  22156.702797    300.396380  6  6  3 120       
PG14 -18681.431664  10049.139312 -15784.324110    -87.636007  3  6  3 142       
PG15   5304.397300 -23959.909045 -10058.509201   -304.723395  8  7  6 119       
PG16  -6869.026585  16074.478710  19976.504745     37.578293  5  6  6 142       
PG17  18777.554186  -8911.031171 -16353.155043     67.242601  7  4  7  62       
PG18 -18553.370604 -12508.646529 -14359.904341    -44.234784  6  7  7 131       
PG19  -5145.076383  22823.381508 -12259.102397     20.850835  8  8  6 109       
PG20  13198.827906  23057.163635   -954.207663     78.663383  7  7  7 104       
PG21 -25108.058058  -6172.996843   7642.434391      5.652752  8  7  6 128       
PG22 -16941.571871   -292.239393 -20310.754032    196.519065  3  6  3 151       
PG23   4464.802824  17946.367174  18901.740682    390.171718  6 10  7 142       
PG24 -14964.464165 -13293.792222  17461.966180    200.542937  2  6  6  92       
PG25  17840.444075  10135.544570  17097.899972    484.643455  4  5  6 136       
PG26  -9869.673214 -11502.405183 -22320.178035     64.300356  6  6  3 116       
PG27   -485.130448 -14588.750992 -21510.617618     61.447865  7  8  6 102       
PG28  17231.956448   3681.091980 -19537.245757    -25.734796  7  7  6 125       
PG29 -12201.273130  -9295.298839  21791.008956     34.675071  5  6  6 150       
PG30 -17568.648848 -18600.259661   6907.396762    157.153268  8  5  7 136       
PG31 -22491.054047   8095.786332  11935.027655    -63.097055  5  5  7 151       
PG32   5866.221353  24836.987261  -7442.433996    239.918103  7  5  7 161       
EOF
